[{"OBJECT_NAME":"ORBITER SN3","OBJECT_ID":"2023-084AE","EPOCH":"2026-03-09T23:12:21.976128","MEAN_MOTION":15.32943891,"ECCENTRICITY":0.00075889,"INCLINATION":97.61,"RA_OF_ASC_NODE":206.6768,"ARG_OF_PERICENTER":331.7947,"MEAN_ANOMALY":28.2883,"EPHEMERIS_TYPE":0,"CLASSIFICATION_TYPE":"U","NORAD_CAT_ID":56960,"ELEMENT_SET_NO":999,"REV_AT_EPOCH":15228,"BSTAR":0.00032835432,"MEAN_MOTION_DOT":0.00010378,"MEAN_MOTION_DDOT":0},{"OBJECT_NAME":"STARLINK-35382","OBJECT_ID":"2025-232Q","EPOCH":"2026-03-09T11:51:57.550176","MEAN_MOTION":15.30189182,"ECCENTRICITY":0.00013269,"INCLINATION":53.1592,"RA_OF_ASC_NODE":104.9559,"ARG_OF_PERICENTER":86.2334,"MEAN_ANOMALY":273.8819,"EPHEMERIS_TYPE":0,"CLASSIFICATION_TYPE":"U","NORAD_CAT_ID":66019,"ELEMENT_SET_NO":999,"REV_AT_EPOCH":2340,"BSTAR":0.00093906913,"MEAN_MOTION_DOT":0.00027547,"MEAN_MOTION_DDOT":0}]
